NORAD_CAT_ID,OBJECT_NAME,OBJECT_TYPE,EPOCH,MEAN_MOTION,ECCENTRICITY,INCLINATION,RA_OF_ASC_NODE,ARG_OF_PERICENTER,MEAN_ANOMALY,BSTAR,MEAN_MOTION_DOT,MEAN_MOTION_DDOT,TLE_LINE0,TLE_LINE1,TLE_LINE2,SEMIMAJOR_AXIS,PERIOD,APOGEE,PERIGEE,DECAYED
54056.0,STARLINK-5226,PAYLOAD,2023-03-01 19:20:40,15.08836085,0.0001247,53.2144,259.7384,71.1913,288.9215,0.00058086,8.968e-05,0.0,0 STARLINK-5226,1 54056U 22136F   23060.80602055  .00008968  00000-0  58086-3 0  9992,2 54056  53.2144 259.7384 0001247  71.1913 288.9215 15.08836085 20679,6917.892,95.438,540.62,538.895,0.0
54056.0,STARLINK-5226,PAYLOAD,2023-03-01 20:56:03,15.0883843,0.0001424,53.2146,259.4415,67.2962,292.818,0.00064796,0.00010039,0.0,0 STARLINK-5226,1 54056U 22136F   23060.87226063  .00010039  00000-0  64796-3 0  9997,2 54056  53.2146 259.4415 0001424  67.2962 292.8180 15.08838430 20200,6917.885,95.438,540.735,538.765,0.0
54056.0,STARLINK-5226,PAYLOAD,2023-03-01 22:31:26,15.08850207,0.0001257,53.2153,259.1434,66.6804,293.432,0.00068861,0.00010691,0.0,0 STARLINK-5226,1 54056U 22136F   23060.93849695  .00010691  00000-0  68861-3 0  9997,2 54056  53.2153 259.1434 0001257  66.6804 293.4320 15.08850207 20690,6917.849,95.437,540.584,538.845,0.0
54056.0,STARLINK-5226,PAYLOAD,2023-03-02 19:11:26,15.08866669,0.0001571,53.2145,255.2782,59.3564,300.7583,0.00054461,8.396e-05,0.0,0 STARLINK-5226,1 54056U 22136F   23061.79961076  .00008396  00000-0  54461-3 0  9990,2 54056  53.2145 255.2782 0001571  59.3564 300.7583 15.08866669 20349,6917.799,95.436,540.751,538.577,0.0
54056.0,STARLINK-5226,PAYLOAD,2023-03-03 12:40:40,15.08860322,0.0001431,53.2145,252.0071,61.5178,298.5958,0.00030584,4.585e-05,0.0,0 STARLINK-5226,1 54056U 22136F   23062.52824365  .00004585  00000-0  30584-3 0  9997,2 54056  53.2145 252.0071 0001431  61.5178 298.5958 15.08860322 20931,6917.818,95.436,540.673,538.693,0.0
54056.0,STARLINK-5226,PAYLOAD,2023-03-03 19:02:12,15.08859104,0.0001344,53.2147,250.8175,65.1848,294.9283,0.00029609,4.43e-05,0.0,0 STARLINK-5226,1 54056U 22136F   23062.79320075  .00004430  00000-0  29609-3 0  9990,2 54056  53.2147 250.8175 0001344  65.1848 294.9283 15.08859104 20499,6917.822,95.436,540.617,538.757,0.0
54056.0,STARLINK-5226,PAYLOAD,2023-03-04 12:31:26,15.08852597,7.76e-05,53.2159,247.5472,35.6333,324.4711,0.00026227,3.89e-05,0.0,0 STARLINK-5226,1 54056U 22136F   23063.52183839  .00003890  00000-0  26227-3 0  9999,2 54056  53.2159 247.5472 0000776  35.6333 324.4711 15.08852597 21084,6917.842,95.437,540.244,539.17,0.0
54056.0,STARLINK-5226,PAYLOAD,2023-03-04 17:17:36,15.08852282,0.0001143,53.2152,246.6541,66.8809,293.2304,7.1786e-05,8.55e-06,0.0,0 STARLINK-5226,1 54056U 22136F   23063.72055713  .00000855  00000-0  71786-4 0  9999,2 54056  53.2152 246.6541 0001143  66.8809 293.2304 15.08852282 20639,6917.843,95.437,540.499,538.917,0.0
54056.0,STARLINK-5226,PAYLOAD,2023-03-05 12:22:14,15.08837425,0.0001139,53.2158,243.0859,68.9513,291.1601,-4.0229e-05,-9.28e-06,0.0,0 STARLINK-5226,1 54056U 22136F   23064.51544305 -.00000928  00000-0 -40229-4 0  9998,2 54056  53.2158 243.0859 0001139  68.9513 291.1601 15.08837425 21234,6917.888,95.438,540.541,538.965,0.0
54056.0,STARLINK-5226,PAYLOAD,2023-03-05 17:08:23,15.08839487,0.0001227,53.2171,242.1938,88.3904,271.7229,-1.9685e-05,-6.01e-06,0.0,0 STARLINK-5226,1 54056U 22136F   23064.71416152 -.00000601  00000-0 -19685-4 0  9998,2 54056  53.2171 242.1938 0001227  88.3904 271.7229 15.08839487 20784,6917.882,95.438,540.596,538.898,0.0
54056.0,STARLINK-5226,PAYLOAD,2023-03-06 20:09:57,15.08840905,0.0001442,53.2162,237.1389,89.5824,270.5333,0.00010862,1.441e-05,0.0,0 STARLINK-5226,1 54056U 22136F   23065.84024358  .00001441  00000-0  10862-3 0  9994,2 54056  53.2162 237.1389 0001442  89.5824 270.5333 15.08840905 21434,6917.878,95.437,540.74,538.745,0.0
54056.0,STARLINK-5226,PAYLOAD,2023-03-06 21:45:20,15.0884219,0.000148,53.2158,236.8411,84.944,275.1721,0.00017711,2.532e-05,0.0,0 STARLINK-5226,1 54056U 22136F   23065.90648352  .00002532  00000-0  17711-3 0  9999,2 54056  53.2158 236.8411 0001480  84.9440 275.1721 15.08842190 20963,6917.874,95.437,540.763,538.715,0.0
54056.0,STARLINK-5226,PAYLOAD,2023-03-07 12:03:48,15.08837363,0.0001227,53.2151,234.1635,81.2579,278.8552,7.6193e-05,9.25e-06,0.0,0 STARLINK-5226,1 54056U 22136F   23066.50264772  .00000925  00000-0  76193-4 0  9990,2 54056  53.2151 234.1635 0001227  81.2579 278.8552 15.08837363 21539,6917.888,95.438,540.602,538.905,0.0
54056.0,STARLINK-5226,PAYLOAD,2023-03-08 19:51:31,15.08839408,0.0001646,53.2152,228.2156,85.8003,274.3177,0.00010077,1.316e-05,0.0,0 STARLINK-5226,1 54056U 22136F   23067.82745044  .00001316  00000-0  10077-3 0  9995,2 54056  53.2152 228.2156 0001646  85.8003 274.3177 15.08839408 21254,6917.882,95.438,540.886,538.609,0.0
54056.0,STARLINK-5226,PAYLOAD,2023-03-09 18:06:55,15.08851825,0.0001316,53.2151,224.0557,70.9121,289.2013,0.00039788,6.052e-05,0.0,0 STARLINK-5226,1 54056U 22136F   23068.75480674  .00006052  00000-0  39788-3 0  9995,2 54056  53.2151 224.0557 0001316  70.9121 289.2013 15.08851825 21398,6917.844,95.437,540.62,538.799,0.0
54056.0,STARLINK-5226,PAYLOAD,2023-03-10 10:00:47,15.08838017,0.0001379,53.2185,221.0807,103.493,256.6216,9.823e-05,1.276e-05,0.0,0 STARLINK-5226,1 54056U 22136F   23069.41721350  .00001276  00000-0  98230-4 0  9999,2 54056  53.2185 221.0807 0001379 103.4930 256.6216 15.08838017 21974,6917.886,95.438,540.705,538.797,0.0
54056.0,STARLINK-5226,PAYLOAD,2023-03-10 16:22:19,15.08839693,0.0001363,53.2171,219.8905,99.3432,260.7715,0.00011866,1.601e-05,0.0,0 STARLINK-5226,1 54056U 22136F   23069.68217341  .00001601  00000-0  11866-3 0  9999,2 54056  53.2171 219.8905 0001363  99.3432 260.7715 15.08839693 21539,6917.881,95.438,540.689,538.803,0.0
54056.0,STARLINK-5226,PAYLOAD,2023-03-11 09:51:34,15.08838889,0.0001164,53.2164,216.6199,93.4826,266.6299,0.00010883,1.445e-05,0.0,0 STARLINK-5226,1 54056U 22136F   23070.41081470  .00001445  00000-0  10883-3 0  9998,2 54056  53.2164 216.6199 0001164  93.4826 266.6299 15.08838889 21642,6917.884,95.438,540.554,538.944,0.0
54056.0,STARLINK-5226,PAYLOAD,2023-03-11 19:23:52,15.08853452,0.0001233,53.2175,214.8351,83.8454,276.2678,0.00032341,4.865e-05,0.0,0 STARLINK-5226,1 54056U 22136F   23070.80824784  .00004865  00000-0  32341-3 0  9996,2 54056  53.2175 214.8351 0001233  83.8454 276.2678 15.08853452 22182,6917.839,95.437,540.557,538.851,0.0
54056.0,STARLINK-5226,PAYLOAD,2023-03-12 09:42:21,15.08833586,0.0001268,53.2152,212.1579,102.851,257.2624,8.4773e-05,1.061e-05,0.0,0 STARLINK-5226,1 54056U 22136F   23071.40441943  .00001061  00000-0  84773-4 0  9997,2 54056  53.2152 212.1579 0001268 102.8510 257.2624 15.08833586 22279,6917.9,95.438,540.642,538.888,0.0
54056.0,STARLINK-5226,PAYLOAD,2023-03-12 19:14:40,15.0884596,0.0001213,53.2175,210.3752,101.5979,258.515,0.00025938,3.843e-05,0.0,0 STARLINK-5226,1 54056U 22136F   23071.80185570  .00003843  00000-0  25938-3 0  9999,2 54056  53.2175 210.3752 0001213 101.5979 258.5150 15.08845960 22336,6917.862,95.437,540.566,538.888,0.0
54056.0,STARLINK-5226,PAYLOAD,2023-03-13 09:33:08,15.08824957,6.88e-05,53.2184,207.7,68.7954,291.3111,-0.00035389,-5.913e-05,0.0,0 STARLINK-5226,1 54056U 22136F   23072.39801696 -.00005913  00000-0 -35389-3 0  9991,2 54056  53.2184 207.7000 0000688  68.7954 291.3111 15.08824957 22429,6917.926,95.439,540.267,539.315,0.0
54056.0,STARLINK-5226,PAYLOAD,2023-03-14 12:34:41,15.08858148,0.0001559,53.218,202.6439,104.7901,255.3264,0.0005238,8.062e-05,0.0,0 STARLINK-5226,1 54056U 22136F   23073.52409449  .00008062  00000-0  52380-3 0  9993,2 54056  53.2180 202.6439 0001559 104.7901 255.3264 15.08858148 22592,6917.825,95.436,540.768,538.611,0.0
54056.0,STARLINK-5226,PAYLOAD,2023-03-14 18:56:13,15.08873012,0.0001499,53.2166,201.4546,97.9726,262.1436,0.00087058,0.00013607,0.0,0 STARLINK-5226,1 54056U 22136F   23073.78904732  .00013607  00000-0  87058-3 0  9997,2 54056  53.2166 201.4546 0001499  97.9726 262.1436 15.08873012 22159,6917.779,95.435,540.681,538.608,0.0
54056.0,STARLINK-5226,PAYLOAD,2023-03-15 12:25:28,15.08863866,0.0002347,53.2157,198.1832,122.4448,237.6771,0.00037064,5.619e-05,0.0,0 STARLINK-5226,1 54056U 22136F   23074.51768628  .00005619  00000-0  37064-3 0  9997,2 54056  53.2157 198.1832 0002347 122.4448 237.6771 15.08863866 22747,6917.807,95.436,541.296,538.049,0.0
54056.0,STARLINK-5226,PAYLOAD,2023-03-16 01:08:32,15.08856361,0.0001071,53.2174,195.8053,88.4422,271.6692,0.00022128,3.237e-05,0.0,0 STARLINK-5226,1 54056U 22136F   23075.04760169  .00003237  00000-0  22128-3 0  9997,2 54056  53.2174 195.8053 0001071  88.4422 271.6692 15.08856361 22822,6917.83,95.437,540.436,538.954,0.0
54056.0,STARLINK-5226,PAYLOAD,2023-03-16 09:05:29,15.08824183,0.0001547,53.2143,194.3181,87.4468,272.6701,-0.00043914,-7.267e-05,0.0,0 STARLINK-5226,1 54056U 22136F   23075.37881256 -.00007267  00000-0 -43914-3 0  9999,2 54056  53.2143 194.3181 0001547  87.4468 272.6701 15.08824183 22875,6917.929,95.439,540.864,538.724,0.0
54056.0,STARLINK-5226,PAYLOAD,2023-03-17 13:42:27,15.08823883,0.0002048,53.2137,188.966,92.992,267.1306,0.00035805,5.412e-05,0.0,0 STARLINK-5226,1 54056U 22136F   23076.57115210  .00005412  00000-0  35805-3 0  9990,2 54056  53.2137 188.9660 0002048  92.9920 267.1306 15.08823883 23057,6917.93,95.439,541.211,538.378,0.0
54056.0,STARLINK-5226,PAYLOAD,2023-03-18 13:33:13,15.08864842,0.0001647,53.2161,184.5065,98.3329,261.785,0.00098075,0.00015366,0.0,0 STARLINK-5226,1 54056U 22136F   23077.56474409  .00015366  00000-0  98075-3 0  9995,2 54056  53.2161 184.5065 0001647  98.3329 261.7850 15.08864842 23203,6917.804,95.436,540.809,538.53,0.0
54056.0,STARLINK-5226,PAYLOAD,2023-03-18 16:43:59,15.08876512,0.0001567,53.2153,183.9113,97.5762,262.5408,0.001261,0.00019858,0.0,0 STARLINK-5226,1 54056U 22136F   23077.69721959  .00019858  00000-0  12610-2 0  9994,2 54056  53.2153 183.9113 0001567  97.5762 262.5408 15.08876512 22747,6917.769,95.435,540.718,538.55,0.0
